STARLINK-36169          
1 66929U 25286E   25363.58336806 -.00090833  00000+0 -16430-2 0  9993
2 66929  53.1586 327.2059 0001583  85.1760 117.6875 15.49326841  4691
STARLINK-36206          
1 66930U 25286F   25363.58336806 -.00095979  00000+0 -17374-2 0  9999
2 66930  53.1586 327.2018 0001297  94.4215 110.3471 15.49332414  4693
STARLINK-36130          
1 66931U 25286G   25363.58336806 -.02092457  00000+0 -42137-1 0  9994
2 66931  53.1588 327.1982 0001657  91.4247 115.2319 15.49447262  4690
STARLINK-36177          
1 66932U 25286H   25363.58336806 -.00094370  00000+0 -17078-2 0  9996
2 66932  53.1586 327.1933 0001326  80.9489 127.6519 15.49332609  4696
STARLINK-36157          
1 66933U 25286J   25363.58336806 -.00088674  00000+0 -16036-2 0  9990
2 66933  53.1585 327.1896 0001552  80.5619 129.9749 15.49322255  4692
STARLINK-36153          
1 66934U 25286K   25363.58336806 -.00136855  00000+0 -24924-2 0  9991
2 66934  53.1585 327.1860 0001552  92.2871 120.1672 15.49346764  4693
STARLINK-36127          
1 66935U 25286L   25363.58336806 -.02078338  00000+0 -48678-1 0  9996
2 66935  53.1588 327.1950 0001367  92.4014 114.8572 15.45113402  4698
STARLINK-36160          
1 66936U 25286M   25363.58336806 -.00125772  00000+0 -22857-2 0  9992
2 66936  53.1585 327.1778 0001630  83.3739 132.8835 15.49359279  4690
STARLINK-36165          
1 66937U 25286N   25363.58336806 -.00094682  00000+0 -17135-2 0  9991
2 66937  53.1585 327.1736 0001434  83.3599 134.8249 15.49332656  4692
STARLINK-36155          
1 66938U 25286P   25363.58336806 -.00084643  00000+0 -15293-2 0  9991
2 66938  53.1585 327.1689 0001212  82.8590 137.2446 15.49327400  4696
STARLINK-36154          
1 66939U 25286Q   25363.58336806 -.02097076  00000+0 -46093-1 0  9999
2 66939  53.1586 327.1657 0001522  93.2660 128.4267 15.46974721  4695
STARLINK-36121          
1 66940U 25286R   25363.58336806 -.01702894  00000+0 -33719-1 0  9992
2 66940  53.1587 327.1569 0001792  95.7228 130.0575 15.49769746  4699
