CCSDS_OMM_VERS = 2.0
CREATION_DATE  = 
ORIGINATOR     = 

OBJECT_NAME    = STARLINK-36169
OBJECT_ID      = 2025-286E
CENTER_NAME    = EARTH
REF_FRAME      = TEME
TIME_SYSTEM    = UTC
MEAN_ELEMENT_THEORY = SGP/SGP4

EPOCH          = 2025-12-29T14:00:03.000384
MEAN_MOTION    = 15.49326841
ECCENTRICITY   = .0001583
INCLINATION    = 53.1586
RA_OF_ASC_NODE = 327.2059
ARG_OF_PERICENTER = 85.1760
MEAN_ANOMALY   = 117.6875

EPHEMERIS_TYPE = 0
CLASSIFICATION_TYPE = U
NORAD_CAT_ID   = 66929
ELEMENT_SET_NO = 999
REV_AT_EPOCH   = 469
BSTAR          = -.16430303E-2
MEAN_MOTION_DOT = -.90833E-3
MEAN_MOTION_DDOT = 0

CCSDS_OMM_VERS = 2.0
CREATION_DATE  = 
ORIGINATOR     = 

OBJECT_NAME    = STARLINK-36206
OBJECT_ID      = 2025-286F
CENTER_NAME    = EARTH
REF_FRAME      = TEME
TIME_SYSTEM    = UTC
MEAN_ELEMENT_THEORY = SGP/SGP4

EPOCH          = 2025-12-29T14:00:03.000384
MEAN_MOTION    = 15.49332414
ECCENTRICITY   = .0001297
INCLINATION    = 53.1586
RA_OF_ASC_NODE = 327.2018
ARG_OF_PERICENTER = 94.4215
MEAN_ANOMALY   = 110.3471

EPHEMERIS_TYPE = 0
CLASSIFICATION_TYPE = U
NORAD_CAT_ID   = 66930
ELEMENT_SET_NO = 999
REV_AT_EPOCH   = 469
BSTAR          = -.17374111E-2
MEAN_MOTION_DOT = -.95979E-3
MEAN_MOTION_DDOT = 0

CCSDS_OMM_VERS = 2.0
CREATION_DATE  = 
ORIGINATOR     = 

OBJECT_NAME    = STARLINK-36130
OBJECT_ID      = 2025-286G
CENTER_NAME    = EARTH
REF_FRAME      = TEME
TIME_SYSTEM    = UTC
MEAN_ELEMENT_THEORY = SGP/SGP4

EPOCH          = 2025-12-29T14:00:03.000384
MEAN_MOTION    = 15.49447262
ECCENTRICITY   = .00016575
INCLINATION    = 53.1588
RA_OF_ASC_NODE = 327.1982
ARG_OF_PERICENTER = 91.4247
MEAN_ANOMALY   = 115.2319

EPHEMERIS_TYPE = 0
CLASSIFICATION_TYPE = U
NORAD_CAT_ID   = 66931
ELEMENT_SET_NO = 999
REV_AT_EPOCH   = 469
BSTAR          = -.42136862E-1
MEAN_MOTION_DOT = -.2092457E-1
MEAN_MOTION_DDOT = 0

CCSDS_OMM_VERS = 2.0
CREATION_DATE  = 
ORIGINATOR     = 

OBJECT_NAME    = STARLINK-36177
OBJECT_ID      = 2025-286H
CENTER_NAME    = EARTH
REF_FRAME      = TEME
TIME_SYSTEM    = UTC
MEAN_ELEMENT_THEORY = SGP/SGP4

EPOCH          = 2025-12-29T14:00:03.000384
MEAN_MOTION    = 15.49332609
ECCENTRICITY   = .00013267
INCLINATION    = 53.1586
RA_OF_ASC_NODE = 327.1933
ARG_OF_PERICENTER = 80.9489
MEAN_ANOMALY   = 127.6519

EPHEMERIS_TYPE = 0
CLASSIFICATION_TYPE = U
NORAD_CAT_ID   = 66932
ELEMENT_SET_NO = 999
REV_AT_EPOCH   = 469
BSTAR          = -.17077891E-2
MEAN_MOTION_DOT = -.9437E-3
MEAN_MOTION_DDOT = 0

CCSDS_OMM_VERS = 2.0
CREATION_DATE  = 
ORIGINATOR     = 

OBJECT_NAME    = STARLINK-36157
OBJECT_ID      = 2025-286J
CENTER_NAME    = EARTH
REF_FRAME      = TEME
TIME_SYSTEM    = UTC
MEAN_ELEMENT_THEORY = SGP/SGP4

EPOCH          = 2025-12-29T14:00:03.000384
MEAN_MOTION    = 15.49322255
ECCENTRICITY   = .00015522
INCLINATION    = 53.1585
RA_OF_ASC_NODE = 327.1896
ARG_OF_PERICENTER = 80.5619
MEAN_ANOMALY   = 129.9749

EPHEMERIS_TYPE = 0
CLASSIFICATION_TYPE = U
NORAD_CAT_ID   = 66933
ELEMENT_SET_NO = 999
REV_AT_EPOCH   = 469
BSTAR          = -.16036048E-2
MEAN_MOTION_DOT = -.88674E-3
MEAN_MOTION_DDOT = 0

CCSDS_OMM_VERS = 2.0
CREATION_DATE  = 
ORIGINATOR     = 

OBJECT_NAME    = STARLINK-36153
OBJECT_ID      = 2025-286K
CENTER_NAME    = EARTH
REF_FRAME      = TEME
TIME_SYSTEM    = UTC
MEAN_ELEMENT_THEORY = SGP/SGP4

EPOCH          = 2025-12-29T14:00:03.000384
MEAN_MOTION    = 15.49346764
ECCENTRICITY   = .00015528
INCLINATION    = 53.1585
RA_OF_ASC_NODE = 327.1860
ARG_OF_PERICENTER = 92.2871
MEAN_ANOMALY   = 120.1672

EPHEMERIS_TYPE = 0
CLASSIFICATION_TYPE = U
NORAD_CAT_ID   = 66934
ELEMENT_SET_NO = 999
REV_AT_EPOCH   = 469
BSTAR          = -.24924088E-2
MEAN_MOTION_DOT = -.136855E-2
MEAN_MOTION_DDOT = 0

CCSDS_OMM_VERS = 2.0
CREATION_DATE  = 
ORIGINATOR     = 

OBJECT_NAME    = STARLINK-36127
OBJECT_ID      = 2025-286L
CENTER_NAME    = EARTH
REF_FRAME      = TEME
TIME_SYSTEM    = UTC
MEAN_ELEMENT_THEORY = SGP/SGP4

EPOCH          = 2025-12-29T14:00:03.000384
MEAN_MOTION    = 15.45113402
ECCENTRICITY   = .00013672
INCLINATION    = 53.1588
RA_OF_ASC_NODE = 327.1950
ARG_OF_PERICENTER = 92.4014
MEAN_ANOMALY   = 114.8572

EPHEMERIS_TYPE = 0
CLASSIFICATION_TYPE = U
NORAD_CAT_ID   = 66935
ELEMENT_SET_NO = 999
REV_AT_EPOCH   = 469
BSTAR          = -.48677943E-1
MEAN_MOTION_DOT = -.2078338E-1
MEAN_MOTION_DDOT = 0

CCSDS_OMM_VERS = 2.0
CREATION_DATE  = 
ORIGINATOR     = 

OBJECT_NAME    = STARLINK-36160
OBJECT_ID      = 2025-286M
CENTER_NAME    = EARTH
REF_FRAME      = TEME
TIME_SYSTEM    = UTC
MEAN_ELEMENT_THEORY = SGP/SGP4

EPOCH          = 2025-12-29T14:00:03.000384
MEAN_MOTION    = 15.49359279
ECCENTRICITY   = .00016301
INCLINATION    = 53.1585
RA_OF_ASC_NODE = 327.1778
ARG_OF_PERICENTER = 83.3739
MEAN_ANOMALY   = 132.8835

EPHEMERIS_TYPE = 0
CLASSIFICATION_TYPE = U
NORAD_CAT_ID   = 66936
ELEMENT_SET_NO = 999
REV_AT_EPOCH   = 469
BSTAR          = -.22856558E-2
MEAN_MOTION_DOT = -.125772E-2
MEAN_MOTION_DDOT = 0

CCSDS_OMM_VERS = 2.0
CREATION_DATE  = 
ORIGINATOR     = 

OBJECT_NAME    = STARLINK-36165
OBJECT_ID      = 2025-286N
CENTER_NAME    = EARTH
REF_FRAME      = TEME
TIME_SYSTEM    = UTC
MEAN_ELEMENT_THEORY = SGP/SGP4

EPOCH          = 2025-12-29T14:00:03.000384
MEAN_MOTION    = 15.49332656
ECCENTRICITY   = .00014343
INCLINATION    = 53.1585
RA_OF_ASC_NODE = 327.1736
ARG_OF_PERICENTER = 83.3599
MEAN_ANOMALY   = 134.8249

EPHEMERIS_TYPE = 0
CLASSIFICATION_TYPE = U
NORAD_CAT_ID   = 66937
ELEMENT_SET_NO = 999
REV_AT_EPOCH   = 469
BSTAR          = -.17135009E-2
MEAN_MOTION_DOT = -.94682E-3
MEAN_MOTION_DDOT = 0

CCSDS_OMM_VERS = 2.0
CREATION_DATE  = 
ORIGINATOR     = 

OBJECT_NAME    = STARLINK-36155
OBJECT_ID      = 2025-286P
CENTER_NAME    = EARTH
REF_FRAME      = TEME
TIME_SYSTEM    = UTC
MEAN_ELEMENT_THEORY = SGP/SGP4

EPOCH          = 2025-12-29T14:00:03.000384
MEAN_MOTION    = 15.49327400
ECCENTRICITY   = .00012129
INCLINATION    = 53.1585
RA_OF_ASC_NODE = 327.1689
ARG_OF_PERICENTER = 82.8590
MEAN_ANOMALY   = 137.2446

EPHEMERIS_TYPE = 0
CLASSIFICATION_TYPE = U
NORAD_CAT_ID   = 66938
ELEMENT_SET_NO = 999
REV_AT_EPOCH   = 469
BSTAR          = -.15293218E-2
MEAN_MOTION_DOT = -.84643E-3
MEAN_MOTION_DDOT = 0

CCSDS_OMM_VERS = 2.0
CREATION_DATE  = 
ORIGINATOR     = 

OBJECT_NAME    = STARLINK-36154
OBJECT_ID      = 2025-286Q
CENTER_NAME    = EARTH
REF_FRAME      = TEME
TIME_SYSTEM    = UTC
MEAN_ELEMENT_THEORY = SGP/SGP4

EPOCH          = 2025-12-29T14:00:03.000384
MEAN_MOTION    = 15.46974721
ECCENTRICITY   = .00015223
INCLINATION    = 53.1586
RA_OF_ASC_NODE = 327.1657
ARG_OF_PERICENTER = 93.2660
MEAN_ANOMALY   = 128.4267

EPHEMERIS_TYPE = 0
CLASSIFICATION_TYPE = U
NORAD_CAT_ID   = 66939
ELEMENT_SET_NO = 999
REV_AT_EPOCH   = 469
BSTAR          = -.46092795E-1
MEAN_MOTION_DOT = -.2097076E-1
MEAN_MOTION_DDOT = 0

CCSDS_OMM_VERS = 2.0
CREATION_DATE  = 
ORIGINATOR     = 

OBJECT_NAME    = STARLINK-36121
OBJECT_ID      = 2025-286R
CENTER_NAME    = EARTH
REF_FRAME      = TEME
TIME_SYSTEM    = UTC
MEAN_ELEMENT_THEORY = SGP/SGP4

EPOCH          = 2025-12-29T14:00:03.000384
MEAN_MOTION    = 15.49769746
ECCENTRICITY   = .00017926
INCLINATION    = 53.1587
RA_OF_ASC_NODE = 327.1569
ARG_OF_PERICENTER = 95.7228
MEAN_ANOMALY   = 130.0575

EPHEMERIS_TYPE = 0
CLASSIFICATION_TYPE = U
NORAD_CAT_ID   = 66940
ELEMENT_SET_NO = 999
REV_AT_EPOCH   = 469
BSTAR          = -.33719016E-1
MEAN_MOTION_DOT = -.1702894E-1
MEAN_MOTION_DDOT = 0

